KUIPER-00061            
1 64521U 25134X   25224.04765788  .00057280  00000+0  16030-2 0  9996
2 64521  51.8735  91.8583 0006190 284.5174  75.5125 15.36079134  8406
KUIPER-00062            
1 64522U 25134Y   25224.25002315 -.00045346  00000+0 -20300-2 0  9997
2 64522  51.8800  91.7743 0007019 299.0081  56.0947 15.20733330  8422
KUIPER-00063            
1 64523U 25134Z   25224.25002315 -.01141099  00000+0 -49574-1 0  9994
2 64523  51.8776  91.1211 0003535 245.2241  40.2266 15.24486789  8425
KUIPER-00064            
1 64524U 25134AA  25224.25002315 -.00021708  00000+0 -76999-3 0  9991
2 64524  51.8808  90.7394 0001262 316.2074 176.7498 15.28130352  8739
KUIPER-00065            
1 64525U 25134AB  25224.25002315 -.00026273  00000+0 -13456-2 0  9992
2 64525  51.8853  92.2276 0007578 303.8047 104.0579 15.15811781  8657
KUIPER-00066            
1 64526U 25134AC  25223.91668981  .00008800  00000+0  32325-3 0  9993
2 64526  51.8812  92.3514 0001492 250.6390 174.6100 15.28677665  8386
KUIPER-00069            
1 64816U 25151A   25224.07724400  .00034660  00000+0  97872-3 0  9992
2 64816  51.8774 158.3048 0005236 235.2601 124.7892 15.36033547  5299
KUIPER-00070            
1 64817U 25151B   25224.16668981 -.00777119  00000+0 -36399-1 0  9994
2 64817  51.8869 158.7875 0006651 265.4007 165.6677 15.21781332  5295
